[
	{
		"street": "P.O. Box 455, 4692 Dictum Ave",
		"city": "Glenrothes",
		"zip": "17241"
	},
	{
		"street": "7616 Vestibulum Street",
		"city": "Owen Sound",
		"zip": "82534"
	},
	{
		"street": "9818 Nunc. St.",
		"city": "Pukekohe",
		"zip": "63174"
	},
	{
		"street": "309-390 Etiam Av.",
		"city": "New Galloway",
		"zip": "9655"
	},
	{
		"street": "832-5100 Commodo Road",
		"city": "Crecchio",
		"zip": "83114"
	},
	{
		"street": "2215 Nulla Rd.",
		"city": "Biggleswade",
		"zip": "68959"
	},
	{
		"street": "Ap #644-7587 Dictum Av.",
		"city": "Castelbaldo",
		"zip": "54935"
	},
	{
		"street": "P.O. Box 549, 7687 Hendrerit Road",
		"city": "Kolomna",
		"zip": "268849"
	},
	{
		"street": "2001 Orci Ave",
		"city": "Burns Lake",
		"zip": "42630-18868"
	},
	{
		"street": "597-469 Egestas. Rd.",
		"city": "Vance",
		"zip": "38806-370"
	},
	{
		"street": "P.O. Box 139, 406 Aenean Road",
		"city": "Noida",
		"zip": "9659"
	},
	{
		"street": "957-9066 Sed St.",
		"city": "Las Condes",
		"zip": "J8A 5G4"
	},
	{
		"street": "Ap #276-704 Magna. Avenue",
		"city": "Kohlu",
		"zip": "20109"
	},
	{
		"street": "Ap #908-2325 At St.",
		"city": "Monteu Roero",
		"zip": "50-749"
	},
	{
		"street": "Ap #135-8084 Quam, St.",
		"city": "Zhukovsky",
		"zip": "26530"
	},
	{
		"street": "6680 Et Ave",
		"city": "Sigillo",
		"zip": "5953"
	},
	{
		"street": "P.O. Box 196, 9798 In Street",
		"city": "Ried im Innkreis",
		"zip": "Z7282"
	},
	{
		"street": "6085 Cursus Street",
		"city": "Saint Andrï¿½",
		"zip": "43795"
	},
	{
		"street": "Ap #777-8749 Egestas. Street",
		"city": "Aiseau-Presles",
		"zip": "61111"
	},
	{
		"street": "P.O. Box 850, 7044 Luctus St.",
		"city": "Austin",
		"zip": "40504"
	},
	{
		"street": "Ap #904-7931 Et, Road",
		"city": "Oostakker",
		"zip": "B2Z 4Z8"
	},
	{
		"street": "Ap #794-3102 Libero. Rd.",
		"city": "Lahore",
		"zip": "87-538"
	},
	{
		"street": "7630 Nec Street",
		"city": "Neelum Valley",
		"zip": "64-918"
	},
	{
		"street": "P.O. Box 576, 9436 Tellus St.",
		"city": "Minto",
		"zip": "321089"
	},
	{
		"street": "Ap #960-510 Amet Rd.",
		"city": "Watson Lake",
		"zip": "70339-815"
	},
	{
		"street": "601-6318 Malesuada St.",
		"city": "Bromyard",
		"zip": "3525 DT"
	},
	{
		"street": "1074 Enim St.",
		"city": "Roksem",
		"zip": "41218"
	},
	{
		"street": "Ap #988-7463 Erat. Ave",
		"city": "St. David's",
		"zip": "797673"
	},
	{
		"street": "Ap #677-1533 Nunc St.",
		"city": "Wepion",
		"zip": "53324"
	},
	{
		"street": "Ap #351-7170 Et Street",
		"city": "Leipzig",
		"zip": "51279-22555"
	},
	{
		"street": "259-4787 Nunc Ave",
		"city": "Outremont",
		"zip": "75357-47383"
	},
	{
		"street": "Ap #920-5477 Metus Ave",
		"city": "Ife",
		"zip": "15532-44092"
	},
	{
		"street": "8208 Odio Ave",
		"city": "San Carlos",
		"zip": "35986"
	},
	{
		"street": "P.O. Box 595, 4033 Nonummy St.",
		"city": "Bajardo",
		"zip": "5186"
	},
	{
		"street": "294-5812 Fringilla, Ave",
		"city": "Piracicaba",
		"zip": "870896"
	},
	{
		"street": "5128 Aliquet St.",
		"city": "North Battleford",
		"zip": "867697"
	},
	{
		"street": "Ap #228-6654 A, Avenue",
		"city": "Quilleco",
		"zip": "962013"
	},
	{
		"street": "P.O. Box 889, 9900 Risus. Av.",
		"city": "Suarlee",
		"zip": "271980"
	},
	{
		"street": "6294 Malesuada Avenue",
		"city": "Lleida",
		"zip": "974491"
	},
	{
		"street": "Ap #432-6650 Mollis. Road",
		"city": "Bellevue",
		"zip": "64-763"
	}
]
